{"fetched_at":"2026-05-16T16:58:44Z","count":2158,"tles":[{"name":"STARLINK-3759","line1":"1 52299U 22041AQ  23362.50509653  .00000618  00000+0  56895-4 0  9996","line2":"2 52299  53.2177 100.2702 0001441  97.2128 262.9028 15.08839458 94626","category":"Starlink"},{"name":"STARLINK-32909","line1":"1 62894U 25024R   26134.53890234  .00010371  00000+0  38577-3 0  9996","line2":"2 62894  43.0044 313.7498 0001866 269.5329  90.5309 15.27586649 72332","category":"Starlink"},{"name":"STARLINK-37291","line1":"1 68560U 26070U   26135.07412480  .00068732  00000+0  12325-2 0  9993","line2":"2 68560  53.1599  54.5861 0001269  61.1101 299.0036 15.49321865  6713","category":"Starlink"},{"name":"ORBCOMM FM08","line1":"1 25112U 97084A   26105.07761573  .00000703  00000+0  23063-3 0  9995","line2":"2 25112  45.0152 357.1987 0006944 346.7424  13.3245 14.47102597485086","category":"Other"},{"name":"LUME 1","line1":"1 43908U 18111AJ  24043.62486058  .05951207  23920-5  11054-2 0  9991","line2":"2 43908  97.0797 293.7897 0002761 175.9252 184.2067 16.32294525286965","category":"Other"},{"name":"KSF3-D","line1":"1 55085U 23001CE  23362.46274624  .00015212  00000+0  65801-3 0  9993","line2":"2 55085  97.4517  60.2274 0014562  49.8980 310.3530 15.22442609 54598","category":"Other"},{"name":"2023-193B","line1":"1 58554U 23193B   24007.59568627  .00009850  00000+0  24709-3 0  9992","line2":"2 58554  97.2585  16.8608 0021745 159.2020 201.0117 15.39978613  4550","category":"Other"},{"name":"STARLINK-34235","line1":"1 64760U 25147F   26135.25002315  .00050510  00000+0  15383-2 0  9999","line2":"2 64760  53.1598 293.5695 0001075 134.8952 190.8124 15.33516976  5714","category":"Starlink"},{"name":"COSMOS 2251 DEB","line1":"1 34015U 93036HA  26104.91482148  .00001446  00000+0  29899-3 0  9998","line2":"2 34015  74.0220 283.9228 0019428 351.4336 161.0033 14.61192376903290","category":"Other"},{"name":"STARLINK-3069","line1":"1 49176U 21082AY  26135.26484329  .00000143  00000+0  19733-4 0  9999","line2":"2 49176  69.9995  86.5923 0002921 265.5198  94.5628 14.98337860256937","category":"Starlink"},{"name":"STARLINK-32393","line1":"1 61862U 24202T   26135.29718693 -.00000408  00000+0 -52918-5 0  9998","line2":"2 61862  43.0020 221.8921 0002013 282.9779  77.0848 15.27574637 85520","category":"Starlink"},{"name":"STARLINK-36588","line1":"1 67573U 26016N   26135.11601528  .00012798  00000+0  39802-3 0  9995","line2":"2 67573  97.2858 195.5804 0001794 121.8274 238.3144 15.33447092 17042","category":"Starlink"},{"name":"FENGYUN 1C DEB","line1":"1 30365U 99025ACC 26104.92087561  .00000261  00000+0  12509-3 0  9991","line2":"2 30365  98.6280 101.0996 0167837 115.7845 265.7157 14.19399844993603","category":"Weather"},{"name":"STARLINK-5345","line1":"1 56517U 23065Q   26135.15548834 -.00001548  00000+0 -46756-4 0  9996","line2":"2 56517  43.0021 197.2081 0001254 275.6424  84.4284 15.27569451166767","category":"Starlink"},{"name":"STARLINK-31727","line1":"1 59638U 24082H   26134.44407325 -.00000215  00000+0  17118-5 0  9993","line2":"2 59638  43.0040 128.8527 0001461 273.2738  86.7946 15.27574214114915","category":"Starlink"},{"name":"STARLINK-35462","line1":"1 65877U 25223Z   26134.62078017  .00010516  00000+0  36661-3 0  9991","line2":"2 65877  53.1576 347.6693 0000422 103.8930 256.2118 15.30203106 34308","category":"Starlink"},{"name":"IRIDIUM 33 DEB","line1":"1 37136U 97051XG  23178.85423868  .00001412  00000+0  60443-3 0  9994","line2":"2 37136  86.1752  10.5017 0083151 351.0467   8.9233 14.22411037730133","category":"Other"},{"name":"STARLINK-3800","line1":"1 52379U 22045BA  26135.31261396  .00002723  00000+0  18897-3 0  9996","line2":"2 52379  53.2193 250.0404 0000279  88.7138 271.3887 15.08859881225984","category":"Starlink"},{"name":"HULIANWANG DIGUI-11","line1":"1 62971U 25030A   26135.23149162 -.00000090  00000+0  72716-4 0  9996","line2":"2 62971  50.0024 354.0256 0001316  63.2475 296.8531 13.29320749 61473","category":"Other"},{"name":"STARLINK-37231","line1":"1 68624U 26073Y   26135.11955321  .00155557  00000+0  10247-2 0  9991","line2":"2 68624  97.2835 334.1633 0002652  52.9353 307.2154 15.75192878  6019","category":"Starlink"},{"name":"MOLNIYA 1-91","line1":"1 25485U 98054A   23178.12725359  .00000103  00000+0  00000+0 0  9997","line2":"2 25485  63.3372  91.8251 6791666 291.6975  11.8681  2.36444410187230","category":"Other"},{"name":"BLUEWALKER 1","line1":"1 44105U 19018AD  23329.94723962  .06216895  24795-5  75815-3 0  9992","line2":"2 44105  97.3664  78.1509 0009698 299.3464  60.6864 16.36246973261444","category":"Other"},{"name":"ONEWEB-0631","line1":"1 55171U 23004AH  26135.09521614  .00000040  00000+0  68947-4 0  9994","line2":"2 55171  87.9176 342.0205 0001499  98.6158 261.5144 13.18687191165319","category":"Other"},{"name":"STARLINK-30774","line1":"1 58625U 23203H   26135.13386166 -.00000100  00000+0  58856-5 0  9995","line2":"2 58625  43.0041  51.8095 0000645 274.2854  85.7924 15.27573186133721","category":"Starlink"},{"name":"KUIPER-00077","line1":"1 64824U 25151J   26135.00955931  .00002072  00000+0  30066-3 0  9995","line2":"2 64824  51.9042   4.8416 0000937 110.9183 249.1880 14.79938844 45167","category":"Other"},{"name":"COSMOS 2251 DEB","line1":"1 34124U 93036KV  23177.64424713  .00025155  00000+0  34401-2 0  9997","line2":"2 34124  74.0178 248.1191 0007098 165.5336 194.6044 14.78436844760125","category":"Other"},{"name":"ONEWEB-0369","line1":"1 49295U 21090S   26134.44350143  .00000096  00000+0  20650-3 0  9991","line2":"2 49295  87.9144 311.7036 0001857  88.9434 271.1912 13.19725517221966","category":"Other"},{"name":"STARLINK-32622","line1":"1 61927U 24207R   26134.71090070  .00007017  00000+0  26420-3 0  9991","line2":"2 61927  43.0013 268.5039 0001632 263.0318  97.0348 15.27589188 84823","category":"Starlink"},{"name":"STARLINK-36610","line1":"1 67637U 26020W   26135.11707469  .00012037  00000+0  44590-3 0  9998","line2":"2 67637  42.9999 124.5544 0001265 268.8345  91.2362 15.27603333 16270","category":"Starlink"},{"name":"FENGYUN 1C DEB","line1":"1 30453U 99025AFQ 26104.44537419  .00001671  00000+0  67743-3 0  9994","line2":"2 30453  98.7988 181.6465 0113649 230.1380 144.8232 14.25609076989828","category":"Weather"},{"name":"STARLINK-1650","line1":"1 46573U 20070AT  23178.28134659  .28345675  12332-4  27582-2 0  9994","line2":"2 46573  53.0182 182.7530 0002908 320.0887 159.0518 16.37566930152259","category":"Starlink"},{"name":"STARLINK-32087","line1":"1 59702U 24086W   26134.73347128  .00000770  00000+0  37482-4 0  9995","line2":"2 59702  43.0032  46.8317 0000659 267.6825  92.3951 15.27575633114214","category":"Starlink"},{"name":"YOTSUBA-KULOVER","line1":"1 65941U 98067XN  26106.72901255  .06739310  12393-4  74116-3 0  9994","line2":"2 65941  51.6034 215.6287 0009819 317.4833  42.5431 16.36262631 29571","category":"Other"},{"name":"STARLINK-3828","line1":"1 52469U 22049U   26135.22891723 -.00000021  00000+0  16746-4 0  9995","line2":"2 52469  53.2164 120.4207 0001272  80.1207 279.9929 15.08840715222298","category":"Starlink"},{"name":"STARLINK-32801","line1":"1 63035U 25034G   26134.96956671  .00014271  00000+0  44424-3 0  9991","line2":"2 63035  53.1609 310.3244 0001681 134.4845 225.6295 15.33561407 69220","category":"Starlink"},{"name":"CYGNUS NG-24","line1":"1 68689U 26079A   26135.16618096  .00004382  00000+0  87007-4 0  9997","line2":"2 68689  51.6313 103.5621 0007452  60.7339 299.4393 15.49219006  5429","category":"Other"},{"name":"ATLAS 5 CENTAUR DEB","line1":"1 57587U 18079HN  26098.88563672 -.00000109  00000+0  00000+0 0  9996","line2":"2 57587  13.5393  47.1708 4697822 284.8518  29.2029  1.77535580 21412","category":"Other"},{"name":"STARLINK-34029","line1":"1 63805U 25092B   26135.07718492  .00011407  00000+0  42322-3 0  9993","line2":"2 63805  42.9965 157.9802 0000905 325.6239  34.4554 15.27592857 58767","category":"Starlink"},{"name":"UNKNOWN","line1":"1 82448U          26103.52300886  .00002478  00000+0  16977-3 0  9993","line2":"2 82448  85.8688 134.1897 0009944 163.8855 196.2698 15.05537861455350","category":"Other"},{"name":"COSMOS 2597 (RODNIK-S *)","line1":"1 66647U 25273A   26135.23657731  .00000032  00000+0  16198-3 0  9991","line2":"2 66647  82.5009 191.0075 0010398 290.7565  69.2400 12.42898553 21206","category":"Other"},{"name":"YAMAL 101","line1":"1 25896U 99047A   26104.21216948 -.00000133  00000+0  00000+0 0  9991","line2":"2 25896  14.6055 359.9882 0087182  61.2997 126.3902  0.99858880 97168","category":"Other"},{"name":"LEMUR-2-YNDRD","line1":"1 44413U 19038AD  24118.12058259  .07545693  26616-5  16130-2 0  9993","line2":"2 44413  97.6173 121.5100 0010163 188.0754 172.0378 16.30648474267191","category":"Other"},{"name":"STARLINK-5270","line1":"1 55299U 23010AG  26135.25590478  .00000150  00000+0  20395-4 0  9991","line2":"2 55299  69.9996 216.4756 0003414 269.5546  90.5222 14.98330729184122","category":"Starlink"},{"name":"2025-155N","line1":"1 64888U 25155N   26135.24451693  .00017161  00000+0  43591-3 0  9993","line2":"2 64888  97.4457 105.5910 0003324 278.7034  81.3835 15.39707713 75863","category":"Other"},{"name":"COSMOS 2251 DEB","line1":"1 34387U 93036QC  26104.09073086  .00000626  00000+0  18871-3 0  9993","line2":"2 34387  74.0417 344.4193 0037271  52.3284  97.8395 14.44158643899470","category":"Other"},{"name":"STARLINK-3161","line1":"1 49422U 21104Q   26134.76898792  .00000487  00000+0  48658-4 0  9994","line2":"2 49422  53.2169 292.7972 0001223  90.1230 269.9902 15.08844338248599","category":"Starlink"},{"name":"INTELSAT 33E DEB","line1":"1 61991U 16053H   26104.91854566 -.00000271  00000+0  00000+0 0  9997","line2":"2 61991   1.5080  93.2442 0122150 254.5199 104.9093  1.02043716  5546","category":"Other"},{"name":"STARLINK-36713","line1":"1 67701U 26025J   26135.27800713  .00014995  00000+0  46584-3 0  9998","line2":"2 67701  97.2852 246.9732 0000743  83.7503 276.3825 15.33448402 16227","category":"Starlink"}]}